{"fetched_at":"2026-07-19T07:05:21.160Z","source":"https://celestrak.org/NORAD/elements/gp.php?NAME=LEGION&FORMAT=JSON","constellation":"maxar-legion","records":[{"OBJECT_NAME":"LEGION 1","OBJECT_ID":"2024-081A","EPOCH":"2026-07-18T19:51:20.918016","CLASSIFICATION_TYPE":"U","MEAN_MOTION":15.16857137,"ECCENTRICITY":0.0007788,"INCLINATION":97.5009,"RA_OF_ASC_NODE":277.3489,"ARG_OF_PERICENTER":254.5971,"MEAN_ANOMALY":105.4402,"EPHEMERIS_TYPE":0,"NORAD_CAT_ID":59625,"ELEMENT_SET_NO":999,"REV_AT_EPOCH":12233,"BSTAR":0.000091067,"MEAN_MOTION_DOT":0.00001725,"MEAN_MOTION_DDOT":0},{"OBJECT_NAME":"LEGION 2","OBJECT_ID":"2024-081B","EPOCH":"2026-07-18T19:00:11.128608","CLASSIFICATION_TYPE":"U","MEAN_MOTION":15.16836442,"ECCENTRICITY":0.0010491,"INCLINATION":97.5009,"RA_OF_ASC_NODE":277.4104,"ARG_OF_PERICENTER":219.7129,"MEAN_ANOMALY":140.3337,"EPHEMERIS_TYPE":0,"NORAD_CAT_ID":59626,"ELEMENT_SET_NO":999,"REV_AT_EPOCH":12233,"BSTAR":0.000096018,"MEAN_MOTION_DOT":0.00001823,"MEAN_MOTION_DDOT":0},{"OBJECT_NAME":"LEGION 3","OBJECT_ID":"2024-146A","EPOCH":"2026-07-18T18:19:54.785856","CLASSIFICATION_TYPE":"U","MEAN_MOTION":15.15666173,"ECCENTRICITY":0.0007863,"INCLINATION":45.0015,"RA_OF_ASC_NODE":221.2602,"ARG_OF_PERICENTER":353.481,"MEAN_ANOMALY":6.5965,"EPHEMERIS_TYPE":0,"NORAD_CAT_ID":60452,"ELEMENT_SET_NO":999,"REV_AT_EPOCH":10681,"BSTAR":0.000068495,"MEAN_MOTION_DOT":0.00001061,"MEAN_MOTION_DDOT":0},{"OBJECT_NAME":"LEGION 4","OBJECT_ID":"2024-146B","EPOCH":"2026-07-18T16:44:32.310816","CLASSIFICATION_TYPE":"U","MEAN_MOTION":15.15694463,"ECCENTRICITY":0.0009147,"INCLINATION":45.0024,"RA_OF_ASC_NODE":313.4828,"ARG_OF_PERICENTER":135.3401,"MEAN_ANOMALY":224.8216,"EPHEMERIS_TYPE":0,"NORAD_CAT_ID":60453,"ELEMENT_SET_NO":999,"REV_AT_EPOCH":10565,"BSTAR":0.000095797,"MEAN_MOTION_DOT":0.00001591,"MEAN_MOTION_DDOT":0},{"OBJECT_NAME":"LEGION 5","OBJECT_ID":"2025-025A","EPOCH":"2026-07-18T19:54:22.294944","CLASSIFICATION_TYPE":"U","MEAN_MOTION":15.15711861,"ECCENTRICITY":0.0007953,"INCLINATION":45.002,"RA_OF_ASC_NODE":131.7336,"ARG_OF_PERICENTER":308.7213,"MEAN_ANOMALY":51.2954,"EPHEMERIS_TYPE":0,"NORAD_CAT_ID":62900,"ELEMENT_SET_NO":999,"REV_AT_EPOCH":7929,"BSTAR":0.000053577,"MEAN_MOTION_DOT":0.00000774,"MEAN_MOTION_DDOT":0},{"OBJECT_NAME":"LEGION 6","OBJECT_ID":"2025-025B","EPOCH":"2026-07-18T13:33:31.774176","CLASSIFICATION_TYPE":"U","MEAN_MOTION":15.15701148,"ECCENTRICITY":0.0010702,"INCLINATION":45.0031,"RA_OF_ASC_NODE":42.2989,"ARG_OF_PERICENTER":293.9704,"MEAN_ANOMALY":66.0053,"EPHEMERIS_TYPE":0,"NORAD_CAT_ID":62901,"ELEMENT_SET_NO":999,"REV_AT_EPOCH":8039,"BSTAR":0.00010203,"MEAN_MOTION_DOT":0.00001713,"MEAN_MOTION_DDOT":0}]}
