LEGION 1                
1 59625U 24081A   26199.82732544  .00001725  00000+0  91067-4 0  9995
2 59625  97.5009 277.3489 0007788 254.5971 105.4402 15.16857137122333
LEGION 2                
1 59626U 24081B   26199.79179547  .00001823  00000+0  96018-4 0  9990
2 59626  97.5009 277.4104 0010491 219.7129 140.3337 15.16836442122333
LEGION 3                
1 60452U 24146A   26199.76382854  .00001061  00000+0  68495-4 0  9997
2 60452  45.0015 221.2602 0007863 353.4810   6.5965 15.15666173106815
LEGION 4                
1 60453U 24146B   26199.69759619  .00001591  00000+0  95797-4 0  9990
2 60453  45.0024 313.4828 0009147 135.3401 224.8216 15.15694463105658
LEGION 5                
1 62900U 25025A   26199.82942471  .00000774  00000+0  53577-4 0  9993
2 62900  45.0020 131.7336 0007953 308.7213  51.2954 15.15711861 79291
LEGION 6                
1 62901U 25025B   26199.56495109  .00001713  00000+0  10203-3 0  9998
2 62901  45.0031  42.2989 0010702 293.9704  66.0053 15.15701148 80394
